{
  "type": "FeatureCollection",
  "features": [
    {
      "type": "Feature",
      "properties": {
        "norad_id": 63772,
        "name": "BIOMASS",
        "group": "resource",
        "lat": -18.187254032426974,
        "lon": -16.71789251287321,
        "alt_km": 674.6037726382865,
        "timestamp": "2025-12-06T20:37:55.717107+00:00",
        "meta_object_name": "BIOMASS",
        "meta_object_id": "2025-090A",
        "meta_epoch": "2025-12-06T11:32:58.794720",
        "meta_mean_motion": 14.67526401,
        "meta_eccentricity": 0.00011513,
        "meta_inclination": 98.0712,
        "meta_ra_of_asc_node": 165.5814,
        "meta_arg_of_pericenter": 62.7963,
        "meta_mean_anomaly": 297.3359,
        "meta_ephemeris_type": 0,
        "meta_classification_type": "U",
        "meta_norad_cat_id": 63772,
        "meta_element_set_no": 999,
        "meta_rev_at_epoch": 3242,
        "meta_bstar": -0.00051875312,
        "meta_mean_motion_dot": -2.987e-05,
        "meta_mean_motion_ddot": 0,
        "tle_line1": "1 63772U 25090A   25340.48123605 -.00002987  00000+0 -51875-3 0  9990",
        "tle_line2": "2 63772  98.0712 165.5814 0001151  62.7963 297.3359 14.67526401 32420"
      },
      "geometry": {
        "type": "Point",
        "coordinates": [
          -16.71789251287321,
          -18.187254032426974
        ]
      }
    },
    {
      "type": "Feature",
      "properties": {
        "norad_id": 64694,
        "name": "GOSAT-GW (IBUKI GW)",
        "group": "resource",
        "lat": 46.598054926305885,
        "lon": -92.11893329106941,
        "alt_km": 663.9128438012203,
        "timestamp": "2025-12-06T20:37:55.717118+00:00",
        "meta_object_name": "GOSAT-GW (IBUKI GW)",
        "meta_object_id": "2025-141A",
        "meta_epoch": "2025-12-06T13:52:20.673984",
        "meta_mean_motion": 14.67556502,
        "meta_eccentricity": 0.00015277,
        "meta_inclination": 98.0422,
        "meta_ra_of_asc_node": 276.2026,
        "meta_arg_of_pericenter": 83.272,
        "meta_mean_anomaly": 276.8659,
        "meta_ephemeris_type": 0,
        "meta_classification_type": "U",
        "meta_norad_cat_id": 64694,
        "meta_element_set_no": 999,
        "meta_rev_at_epoch": 2359,
        "meta_bstar": 0.00039481795,
        "meta_mean_motion_dot": 2.193e-05,
        "meta_mean_motion_ddot": 0,
        "tle_line1": "1 64694U 25141A   25340.57801706  .00002193  00000+0  39482-3 0  9993",
        "tle_line2": "2 64694  98.0422 276.2026 0001527  83.2720 276.8659 14.67556502 23591"
      },
      "geometry": {
        "type": "Point",
        "coordinates": [
          -92.11893329106941,
          46.598054926305885
        ]
      }
    },
    {
      "type": "Feature",
      "properties": {
        "norad_id": 64876,
        "name": "IONOSFERA-M 3",
        "group": "resource",
        "lat": -54.67851053404755,
        "lon": -44.80948366566057,
        "alt_km": 828.4469715673595,
        "timestamp": "2025-12-06T20:37:55.717128+00:00",
        "meta_object_name": "IONOSFERA-M 3",
        "meta_object_id": "2025-155A",
        "meta_epoch": "2025-12-06T14:08:08.748960",
        "meta_mean_motion": 14.21438707,
        "meta_eccentricity": 0.00023609,
        "meta_inclination": 98.5775,
        "meta_ra_of_asc_node": 302.6295,
        "meta_arg_of_pericenter": 69.7481,
        "meta_mean_anomaly": 290.395,
        "meta_ephemeris_type": 0,
        "meta_classification_type": "U",
        "meta_norad_cat_id": 64876,
        "meta_element_set_no": 999,
        "meta_rev_at_epoch": 1904,
        "meta_bstar": 9.9631662e-05,
        "meta_mean_motion_dot": 1.75e-06,
        "meta_mean_motion_ddot": 0,
        "tle_line1": "1 64876U 25155A   25340.58899015  .00000175  00000+0  99632-4 0  9993",
        "tle_line2": "2 64876  98.5775 302.6295 0002360  69.7481 290.3950 14.21438707 19046"
      },
      "geometry": {
        "type": "Point",
        "coordinates": [
          -44.80948366566057,
          -54.67851053404755
        ]
      }
    },
    {
      "type": "Feature",
      "properties": {
        "norad_id": 64877,
        "name": "IONOSFERA-M 4",
        "group": "resource",
        "lat": 53.89941312248628,
        "lon": 134.7569378081761,
        "alt_km": 814.6834784587263,
        "timestamp": "2025-12-06T20:37:55.717139+00:00",
        "meta_object_name": "IONOSFERA-M 4",
        "meta_object_id": "2025-155B",
        "meta_epoch": "2025-12-06T13:17:17.062944",
        "meta_mean_motion": 14.21439745,
        "meta_eccentricity": 0.0001715,
        "meta_inclination": 98.5774,
        "meta_ra_of_asc_node": 302.5148,
        "meta_arg_of_pericenter": 69.7724,
        "meta_mean_anomaly": 290.3638,
        "meta_ephemeris_type": 0,
        "meta_classification_type": "U",
        "meta_norad_cat_id": 64877,
        "meta_element_set_no": 999,
        "meta_rev_at_epoch": 1903,
        "meta_bstar": 0.0001020022,
        "meta_mean_motion_dot": 1.8e-06,
        "meta_mean_motion_ddot": 0,
        "tle_line1": "1 64877U 25155B   25340.55366971  .00000180  00000+0  10200-3 0  9990",
        "tle_line2": "2 64877  98.5774 302.5148 0001715  69.7724 290.3638 14.21439745 19030"
      },
      "geometry": {
        "type": "Point",
        "coordinates": [
          134.7569378081761,
          53.89941312248628
        ]
      }
    },
    {
      "type": "Feature",
      "properties": {
        "norad_id": 64899,
        "name": "MICROCARB",
        "group": "resource",
        "lat": -68.29247828132843,
        "lon": 76.99451224864441,
        "alt_km": 668.9358114423931,
        "timestamp": "2025-12-06T20:37:55.717149+00:00",
        "meta_object_name": "MICROCARB",
        "meta_object_id": "2025-156A",
        "meta_epoch": "2025-12-06T11:09:40.652640",
        "meta_mean_motion": 14.72041763,
        "meta_eccentricity": 0.00167151,
        "meta_inclination": 98.003,
        "meta_ra_of_asc_node": 55.9109,
        "meta_arg_of_pericenter": 164.2071,
        "meta_mean_anomaly": 195.9661,
        "meta_ephemeris_type": 0,
        "meta_classification_type": "U",
        "meta_norad_cat_id": 64899,
        "meta_element_set_no": 999,
        "meta_rev_at_epoch": 1961,
        "meta_bstar": 0.00024942733,
        "meta_mean_motion_dot": 1.52e-05,
        "meta_mean_motion_ddot": 0,
        "tle_line1": "1 64899U 25156A   25340.46505385  .00001520  00000+0  24943-3 0  9997",
        "tle_line2": "2 64899  98.0030  55.9109 0016715 164.2071 195.9661 14.72041763 19617"
      },
      "geometry": {
        "type": "Point",
        "coordinates": [
          76.99451224864441,
          -68.29247828132843
        ]
      }
    },
    {
      "type": "Feature",
      "properties": {
        "norad_id": 64900,
        "name": "CO3D 3",
        "group": "resource",
        "lat": 33.695012757531615,
        "lon": 52.316577984659304,
        "alt_km": 502.9930491818395,
        "timestamp": "2025-12-06T20:37:55.717159+00:00",
        "meta_object_name": "CO3D 3",
        "meta_object_id": "2025-156B",
        "meta_epoch": "2025-12-06T14:09:50.318208",
        "meta_mean_motion": 15.20196461,
        "meta_eccentricity": 0.00013134,
        "meta_inclination": 97.4348,
        "meta_ra_of_asc_node": 57.0462,
        "meta_arg_of_pericenter": 112.6982,
        "meta_mean_anomaly": 247.4392,
        "meta_ephemeris_type": 0,
        "meta_classification_type": "U",
        "meta_norad_cat_id": 64900,
        "meta_element_set_no": 999,
        "meta_rev_at_epoch": 2027,
        "meta_bstar": 0.00050599382,
        "meta_mean_motion_dot": 0.000109,
        "meta_mean_motion_ddot": 0,
        "tle_line1": "1 64900U 25156B   25340.59016572  .00010900  00000+0  50599-3 0  9997",
        "tle_line2": "2 64900  97.4348  57.0462 0001313 112.6982 247.4392 15.20196461 20274"
      },
      "geometry": {
        "type": "Point",
        "coordinates": [
          52.316577984659304,
          33.695012757531615
        ]
      }
    },
    {
      "type": "Feature",
      "properties": {
        "norad_id": 64901,
        "name": "CO3D 4",
        "group": "resource",
        "lat": 32.89571706917141,
        "lon": 52.466680181523934,
        "alt_km": 504.0044201986866,
        "timestamp": "2025-12-06T20:37:55.717170+00:00",
        "meta_object_name": "CO3D 4",
        "meta_object_id": "2025-156C",
        "meta_epoch": "2025-12-06T14:10:03.184896",
        "meta_mean_motion": 15.20208871,
        "meta_eccentricity": 0.00010858,
        "meta_inclination": 97.4345,
        "meta_ra_of_asc_node": 57.0463,
        "meta_arg_of_pericenter": 228.0175,
        "meta_mean_anomaly": 132.0968,
        "meta_ephemeris_type": 0,
        "meta_classification_type": "U",
        "meta_norad_cat_id": 64901,
        "meta_element_set_no": 999,
        "meta_rev_at_epoch": 2027,
        "meta_bstar": 0.00047619473,
        "meta_mean_motion_dot": 0.00010257,
        "meta_mean_motion_ddot": 0,
        "tle_line1": "1 64901U 25156C   25340.59031464  .00010257  00000+0  47619-3 0  9999",
        "tle_line2": "2 64901  97.4345  57.0463 0001085 228.0175 132.0968 15.20208871 20272"
      },
      "geometry": {
        "type": "Point",
        "coordinates": [
          52.466680181523934,
          32.89571706917141
        ]
      }
    }
  ]
}